[{"OBJECT_NAME":"LEMUR-1","OBJECT_ID":"2014-033AL","EPOCH":"2026-03-07T09:57:12.192480","MEAN_MOTION":14.84787093,"ECCENTRICITY":0.00496153,"INCLINATION":97.7713,"RA_OF_ASC_NODE":218.5959,"ARG_OF_PERICENTER":53.1348,"MEAN_ANOMALY":307.4401,"EPHEMERIS_TYPE":0,"CLASSIFICATION_TYPE":"U","NORAD_CAT_ID":40044,"ELEMENT_SET_NO":999,"REV_AT_EPOCH":63036,"BSTAR":0.00043760974,"MEAN_MOTION_DOT":3.741e-5,"MEAN_MOTION_DDOT":0},{"OBJECT_NAME":"LEMUR-2-GREENBERG","OBJECT_ID":"2017-042N","EPOCH":"2026-03-07T13:30:25.157088","MEAN_MOTION":15.2788101,"ECCENTRICITY":0.00092742,"INCLINATION":97.3775,"RA_OF_ASC_NODE":247.9207,"ARG_OF_PERICENTER":11.1512,"MEAN_ANOMALY":348.9931,"EPHEMERIS_TYPE":0,"CLASSIFICATION_TYPE":"U","NORAD_CAT_ID":42837,"ELEMENT_SET_NO":999,"REV_AT_EPOCH":47285,"BSTAR":0.00095665826,"MEAN_MOTION_DOT":0.00026058,"MEAN_MOTION_DDOT":0},{"OBJECT_NAME":"LEMUR-2-ANDIS","OBJECT_ID":"2017-042P","EPOCH":"2026-03-07T11:12:49.641408","MEAN_MOTION":15.30433453,"ECCENTRICITY":0.00092276,"INCLINATION":97.365,"RA_OF_ASC_NODE":247.7189,"ARG_OF_PERICENTER":11.1895,"MEAN_ANOMALY":348.9549,"EPHEMERIS_TYPE":0,"CLASSIFICATION_TYPE":"U","NORAD_CAT_ID":42838,"ELEMENT_SET_NO":999,"REV_AT_EPOCH":47287,"BSTAR":0.0011454219,"MEAN_MOTION_DOT":0.00033788,"MEAN_MOTION_DDOT":0},{"OBJECT_NAME":"LEMUR-2-MONSON","OBJECT_ID":"2017-042Q","EPOCH":"2026-03-07T11:50:30.964416","MEAN_MOTION":15.24903726,"ECCENTRICITY":0.00067198,"INCLINATION":97.403,"RA_OF_ASC_NODE":247.9572,"ARG_OF_PERICENTER":0.8635,"MEAN_ANOMALY":359.2614,"EPHEMERIS_TYPE":0,"CLASSIFICATION_TYPE":"U","NORAD_CAT_ID":42839,"ELEMENT_SET_NO":999,"REV_AT_EPOCH":47265,"BSTAR":0.00097839013,"MEAN_MOTION_DOT":0.00024344,"MEAN_MOTION_DDOT":0},{"OBJECT_NAME":"LEMUR-2-FURIAUS","OBJECT_ID":"2017-042R","EPOCH":"2026-03-07T11:16:46.814592","MEAN_MOTION":15.26117454,"ECCENTRICITY":0.00075859,"INCLINATION":97.3746,"RA_OF_ASC_NODE":246.0405,"ARG_OF_PERICENTER":64.592,"MEAN_ANOMALY":295.6103,"EPHEMERIS_TYPE":0,"CLASSIFICATION_TYPE":"U","NORAD_CAT_ID":42840,"ELEMENT_SET_NO":999,"REV_AT_EPOCH":47267,"BSTAR":0.0013764175,"MEAN_MOTION_DOT":0.00035606,"MEAN_MOTION_DDOT":0},{"OBJECT_NAME":"LEMUR-2-PETERG","OBJECT_ID":"2017-042S","EPOCH":"2026-03-07T10:54:13.266144","MEAN_MOTION":15.29496627,"ECCENTRICITY":0.00037657,"INCLINATION":97.3974,"RA_OF_ASC_NODE":251.6414,"ARG_OF_PERICENTER":349.8972,"MEAN_ANOMALY":10.2192,"EPHEMERIS_TYPE":0,"CLASSIFICATION_TYPE":"U","NORAD_CAT_ID":42841,"ELEMENT_SET_NO":999,"REV_AT_EPOCH":47286,"BSTAR":0.0010358575,"MEAN_MOTION_DOT":0.00029633,"MEAN_MOTION_DDOT":0},{"OBJECT_NAME":"LEMUR-2-DEMBITZ","OBJECT_ID":"2017-042T","EPOCH":"2026-03-07T13:47:10.856544","MEAN_MOTION":15.26847938,"ECCENTRICITY":0.00070591,"INCLINATION":97.3801,"RA_OF_ASC_NODE":249.045,"ARG_OF_PERICENTER":23.5196,"MEAN_ANOMALY":336.6365,"EPHEMERIS_TYPE":0,"CLASSIFICATION_TYPE":"U","NORAD_CAT_ID":42842,"ELEMENT_SET_NO":999,"REV_AT_EPOCH":47282,"BSTAR":0.00099885158,"MEAN_MOTION_DOT":0.00026359,"MEAN_MOTION_DDOT":0},{"OBJECT_NAME":"LEMUR-2-ZACHARY","OBJECT_ID":"2017-042W","EPOCH":"2026-03-07T12:15:27.663840","MEAN_MOTION":15.41848662,"ECCENTRICITY":0.00036607,"INCLINATION":97.3654,"RA_OF_ASC_NODE":256.5839,"ARG_OF_PERICENTER":25.2646,"MEAN_ANOMALY":334.8779,"EPHEMERIS_TYPE":0,"CLASSIFICATION_TYPE":"U","NORAD_CAT_ID":42845,"ELEMENT_SET_NO":999,"REV_AT_EPOCH":47349,"BSTAR":0.0014280473,"MEAN_MOTION_DOT":0.00060887,"MEAN_MOTION_DDOT":0},{"OBJECT_NAME":"LEMUR-2-JIN-LUEN","OBJECT_ID":"2018-014C","EPOCH":"2026-03-07T07:37:40.684800","MEAN_MOTION":15.77765537,"ECCENTRICITY":0.0002563,"INCLINATION":97.5448,"RA_OF_ASC_NODE":356.3719,"ARG_OF_PERICENTER":140.1579,"MEAN_ANOMALY":219.9876,"EPHEMERIS_TYPE":0,"CLASSIFICATION_TYPE":"U","NORAD_CAT_ID":43182,"ELEMENT_SET_NO":999,"REV_AT_EPOCH":44509,"BSTAR":0.0016667,"MEAN_MOTION_DOT":0.00287684,"MEAN_MOTION_DDOT":0},{"OBJECT_NAME":"LEMUR-2-KADI","OBJECT_ID":"2018-014E","EPOCH":"2026-03-07T07:14:06.080928","MEAN_MOTION":15.63585722,"ECCENTRICITY":9.08e-5,"INCLINATION":97.4702,"RA_OF_ASC_NODE":350.8348,"ARG_OF_PERICENTER":105.9014,"MEAN_ANOMALY":254.2344,"EPHEMERIS_TYPE":0,"CLASSIFICATION_TYPE":"U","NORAD_CAT_ID":43184,"ELEMENT_SET_NO":999,"REV_AT_EPOCH":44501,"BSTAR":0.0013687,"MEAN_MOTION_DOT":0.00128597,"MEAN_MOTION_DDOT":0},{"OBJECT_NAME":"LEMUR-2-AMANDA-SVANTE","OBJECT_ID":"2021-034B","EPOCH":"2026-03-07T03:46:51.203712","MEAN_MOTION":15.28260417,"ECCENTRICITY":0.00023898,"INCLINATION":97.5828,"RA_OF_ASC_NODE":142.1958,"ARG_OF_PERICENTER":214.3504,"MEAN_ANOMALY":145.7581,"EPHEMERIS_TYPE":0,"CLASSIFICATION_TYPE":"U","NORAD_CAT_ID":48269,"ELEMENT_SET_NO":999,"REV_AT_EPOCH":26544,"BSTAR":0.0011410291,"MEAN_MOTION_DOT":0.00031441,"MEAN_MOTION_DDOT":0},{"OBJECT_NAME":"LEMUR-2-SPECIAL-K","OBJECT_ID":"2021-034F","EPOCH":"2026-03-07T10:47:43.085472","MEAN_MOTION":15.44977968,"ECCENTRICITY":0.00015355,"INCLINATION":97.571,"RA_OF_ASC_NODE":147.6645,"ARG_OF_PERICENTER":219.7162,"MEAN_ANOMALY":140.3974,"EPHEMERIS_TYPE":0,"CLASSIFICATION_TYPE":"U","NORAD_CAT_ID":48273,"ELEMENT_SET_NO":999,"REV_AT_EPOCH":26589,"BSTAR":0.0022075353,"MEAN_MOTION_DOT":0.00105183,"MEAN_MOTION_DDOT":0},{"OBJECT_NAME":"LEMUR-2-EMBRIONOVIS","OBJECT_ID":"2023-084AQ","EPOCH":"2026-03-07T07:46:09.408000","MEAN_MOTION":15.34597914,"ECCENTRICITY":0.0008448,"INCLINATION":97.6128,"RA_OF_ASC_NODE":206.9278,"ARG_OF_PERICENTER":322.0566,"MEAN_ANOMALY":38.008,"EPHEMERIS_TYPE":0,"CLASSIFICATION_TYPE":"U","NORAD_CAT_ID":56970,"ELEMENT_SET_NO":999,"REV_AT_EPOCH":15204,"BSTAR":0.00037116,"MEAN_MOTION_DOT":0.00012378,"MEAN_MOTION_DDOT":0},{"OBJECT_NAME":"LEMUR-2-MANO","OBJECT_ID":"2023-100E","EPOCH":"2026-03-07T14:01:56.815968","MEAN_MOTION":15.60105255,"ECCENTRICITY":0.00012226,"INCLINATION":99.4545,"RA_OF_ASC_NODE":88.4176,"ARG_OF_PERICENTER":70.8377,"MEAN_ANOMALY":289.3005,"EPHEMERIS_TYPE":0,"CLASSIFICATION_TYPE":"U","NORAD_CAT_ID":57390,"ELEMENT_SET_NO":999,"REV_AT_EPOCH":14615,"BSTAR":0.0021256384,"MEAN_MOTION_DOT":0.00175854,"MEAN_MOTION_DDOT":0},{"OBJECT_NAME":"LEMUR-2-DEVERILL-M-T","OBJECT_ID":"2023-100F","EPOCH":"2026-03-07T13:32:08.077632","MEAN_MOTION":15.34600662,"ECCENTRICITY":0.0008234,"INCLINATION":99.4579,"RA_OF_ASC_NODE":76.4052,"ARG_OF_PERICENTER":34.9062,"MEAN_ANOMALY":325.2713,"EPHEMERIS_TYPE":0,"CLASSIFICATION_TYPE":"U","NORAD_CAT_ID":57391,"ELEMENT_SET_NO":999,"REV_AT_EPOCH":14563,"BSTAR":0.0011752335,"MEAN_MOTION_DOT":0.00039504,"MEAN_MOTION_DDOT":0},{"OBJECT_NAME":"LEMUR-2-BASS","OBJECT_ID":"2023-174D","EPOCH":"2026-03-07T11:38:52.149120","MEAN_MOTION":15.39664304,"ECCENTRICITY":0.00081222,"INCLINATION":97.3882,"RA_OF_ASC_NODE":150.0285,"ARG_OF_PERICENTER":170.0482,"MEAN_ANOMALY":190.0926,"EPHEMERIS_TYPE":0,"CLASSIFICATION_TYPE":"U","NORAD_CAT_ID":58259,"ELEMENT_SET_NO":999,"REV_AT_EPOCH":12969,"BSTAR":0.00062331853,"MEAN_MOTION_DOT":0.00024587,"MEAN_MOTION_DDOT":0}]
