LEMUR-1                 
1 40044U 14033AL  26066.41472445  .00003741  00000+0  43761-3 0  9992
2 40044  97.7713 218.5959 0049615  53.1348 307.4401 14.84787093630364
LEMUR-2-GREENBERG       
1 42837U 17042N   26066.56279117  .00026058  00000+0  95666-3 0  9991
2 42837  97.3775 247.9207 0009274  11.1512 348.9931 15.27881010472854
LEMUR-2-ANDIS           
1 42838U 17042P   26066.46724122  .00033788  00000+0  11454-2 0  9992
2 42838  97.3650 247.7189 0009227  11.1895 348.9549 15.30433453472871
LEMUR-2-MONSON          
1 42839U 17042Q   26066.49341394  .00024344  00000+0  97839-3 0  9992
2 42839  97.4030 247.9572 0006719   0.8635 359.2614 15.24903726472655
LEMUR-2-FURIAUS         
1 42840U 17042R   26066.46998628  .00035606  00000+0  13764-2 0  9996
2 42840  97.3746 246.0405 0007585  64.5920 295.6103 15.26117454472676
LEMUR-2-PETERG          
1 42841U 17042S   26066.45432021  .00029633  00000+0  10359-2 0  9996
2 42841  97.3974 251.6414 0003765 349.8972  10.2192 15.29496627472869
LEMUR-2-DEMBITZ         
1 42842U 17042T   26066.57443121  .00026359  00000+0  99885-3 0  9997
2 42842  97.3801 249.0450 0007059  23.5196 336.6365 15.26847938472829
LEMUR-2-ZACHARY         
1 42845U 17042W   26066.51073685  .00060887  00000+0  14280-2 0  9997
2 42845  97.3654 256.5839 0003660  25.2646 334.8779 15.41848662473490
LEMUR-2-JIN-LUEN        
1 43182U 18014C   26066.31783200  .00287684  00000+0  16667-2 0  9998
2 43182  97.5448 356.3719 0002563 140.1579 219.9876 15.77765537445091
LEMUR-2-KADI            
1 43184U 18014E   26066.30145927  .00128597  00000+0  13687-2 0  9993
2 43184  97.4702 350.8348 0000908 105.9014 254.2344 15.63585722445011
LEMUR-2-AMANDA-SVANTE   
1 48269U 21034B   26066.15753708  .00031441  00000+0  11410-2 0  9996
2 48269  97.5828 142.1958 0002389 214.3504 145.7581 15.28260417265449
LEMUR-2-SPECIAL-K       
1 48273U 21034F   26066.44980423  .00105183  00000+0  22075-2 0  9993
2 48273  97.5710 147.6645 0001535 219.7162 140.3974 15.44977968265898
LEMUR-2-EMBRIONOVIS     
1 56970U 23084AQ  26066.32372000  .00012378  00000+0  37116-3 0  9992
2 56970  97.6128 206.9278 0008448 322.0566  38.0080 15.34597914152043
LEMUR-2-MANO            
1 57390U 23100E   26066.58468537  .00175854  00000+0  21256-2 0  9993
2 57390  99.4545  88.4176 0001222  70.8377 289.3005 15.60105255146159
LEMUR-2-DEVERILL-M-T    
1 57391U 23100F   26066.56398238  .00039504  00000+0  11752-2 0  9993
2 57391  99.4579  76.4052 0008234  34.9062 325.2713 15.34600662145630
LEMUR-2-BASS            
1 58259U 23174D   26066.48532580  .00024587  00000+0  62332-3 0  9995
2 58259  97.3882 150.0285 0008122 170.0482 190.0926 15.39664304129699
